[
    {
        "Altitude(m)": 556861.2370478554,
        "Argument of Periapsis(deg)": 0.0,
        "Eccentricity": 0.0,
        "Inclination(deg)": 53.0,
        "Latitude(deg)": -13.15404707194742,
        "Longitude(deg)": 144.94366108795458,
        "Mean Anomaly(deg)": -16.363599999999984,
        "RAAN(deg)": 255.0,
        "Satellite Name": "Starlink Shell 1 1143",
        "Satellite Number": 1143,
        "Semi-Major Axis(m)": 6931778.249405717,
        "Time(s)": 0
    },
    {
        "Altitude(m)": 556730.2411924443,
        "Argument of Periapsis(deg)": 0.00034857847951123687,
        "Eccentricity": 0.0,
        "Inclination(deg)": 53.0,
        "Latitude(deg)": -12.658148637918682,
        "Longitude(deg)": 145.2984207426361,
        "Mean Anomaly(deg)": -15.73676879644329,
        "RAAN(deg)": 254.9994812299225,
        "Satellite Name": "Starlink Shell 1 1143",
        "Satellite Number": 1143,
        "Semi-Major Axis(m)": 6931778.249405717,
        "Time(s)": 10
    },
    {
        "Altitude(m)": 556601.4240345109,
        "Argument of Periapsis(deg)": 0.0006971569590224737,
        "Eccentricity": 0.0,
        "Inclination(deg)": 53.0,
        "Latitude(deg)": -12.161631608057126,
        "Longitude(deg)": 145.65166458334522,
        "Mean Anomaly(deg)": -15.109937592886594,
        "RAAN(deg)": 254.9989624598451,
        "Satellite Name": "Starlink Shell 1 1143",
        "Satellite Number": 1143,
        "Semi-Major Axis(m)": 6931778.249405717,
        "Time(s)": 20
    },
    {
        "Altitude(m)": 556474.8250521953,
        "Argument of Periapsis(deg)": 0.0010457354385337105,
        "Eccentricity": 0.0,
        "Inclination(deg)": 53.0,
        "Latitude(deg)": -11.664522528479512,
        "Longitude(deg)": 146.0034578085887,
        "Mean Anomaly(deg)": -14.483106389329897,
        "RAAN(deg)": 254.9984436897676,
        "Satellite Name": "Starlink Shell 1 1143",
        "Satellite Number": 1143,
        "Semi-Major Axis(m)": 6931778.249405717,
        "Time(s)": 30
    },
    {
        "Altitude(m)": 556350.4825911091,
        "Argument of Periapsis(deg)": 0.0013943139180449475,
        "Eccentricity": 0.0,
        "Inclination(deg)": 53.0,
        "Latitude(deg)": -11.16684763959899,
        "Longitude(deg)": 146.3538655020298,
        "Mean Anomaly(deg)": -13.856275185773152,
        "RAAN(deg)": 254.99792491969012,
        "Satellite Name": "Starlink Shell 1 1143",
        "Satellite Number": 1143,
        "Semi-Major Axis(m)": 6931778.249405717,
        "Time(s)": 40
    },
    {
        "Altitude(m)": 556228.4338479497,
        "Argument of Periapsis(deg)": 0.0017428923975561844,
        "Eccentricity": 0.0,
        "Inclination(deg)": 53.0,
        "Latitude(deg)": -10.668632890978992,
        "Longitude(deg)": 146.70295165048566,
        "Mean Anomaly(deg)": -13.229443982216507,
        "RAAN(deg)": 254.99740614961266,
        "Satellite Name": "Starlink Shell 1 1143",
        "Satellite Number": 1143,
        "Semi-Major Axis(m)": 6931778.249405717,
        "Time(s)": 50
    },
    {
        "Altitude(m)": 556108.7148546956,
        "Argument of Periapsis(deg)": 0.002091470877067421,
        "Eccentricity": 0.0,
        "Inclination(deg)": 53.0,
        "Latitude(deg)": -10.16990395591948,
        "Longitude(deg)": 147.050779674738,
        "Mean Anomaly(deg)": -12.602612778659811,
        "RAAN(deg)": 254.9968873795352,
        "Satellite Name": "Starlink Shell 1 1143",
        "Satellite Number": 1143,
        "Semi-Major Axis(m)": 6931778.249405717,
        "Time(s)": 60
    },
    {
        "Altitude(m)": 555991.3604633989,
        "Argument of Periapsis(deg)": 0.0024400493565786582,
        "Eccentricity": 0.0,
        "Inclination(deg)": 53.0,
        "Latitude(deg)": -9.670686245787845,
        "Longitude(deg)": 147.3974129602761,
        "Mean Anomaly(deg)": -11.975781575102964,
        "RAAN(deg)": 254.9963686094577,
        "Satellite Name": "Starlink Shell 1 1143",
        "Satellite Number": 1143,
        "Semi-Major Axis(m)": 6931778.249405717,
        "Time(s)": 70
    },
    {
        "Altitude(m)": 555876.404331519,
        "Argument of Periapsis(deg)": 0.002788627836089895,
        "Eccentricity": 0.0,
        "Inclination(deg)": 53.0,
        "Latitude(deg)": -9.171004924103608,
        "Longitude(deg)": 147.7429138750932,
        "Mean Anomaly(deg)": -11.34895037154632,
        "RAAN(deg)": 254.99584983938024,
        "Satellite Name": "Starlink Shell 1 1143",
        "Satellite Number": 1143,
        "Semi-Major Axis(m)": 6931778.249405717,
        "Time(s)": 80
    },
    {
        "Altitude(m)": 555763.8789079038,
        "Argument of Periapsis(deg)": 0.0031372063156011316,
        "Eccentricity": 0.0,
        "Inclination(deg)": 53.0,
        "Latitude(deg)": -8.670884920391746,
        "Longitude(deg)": 148.0873443002784,
        "Mean Anomaly(deg)": -10.722119167989675,
        "RAAN(deg)": 254.99533106930275,
        "Satellite Name": "Starlink Shell 1 1143",
        "Satellite Number": 1143,
        "Semi-Major Axis(m)": 6931778.249405717,
        "Time(s)": 90
    },
    {
        "Altitude(m)": 555653.8154193228,
        "Argument of Periapsis(deg)": 0.0034857847951123688,
        "Eccentricity": 0.0,
        "Inclination(deg)": 53.0,
        "Latitude(deg)": -8.17035094381814,
        "Longitude(deg)": 148.4307661605271,
        "Mean Anomaly(deg)": -10.095287964432876,
        "RAAN(deg)": 254.99481229922526,
        "Satellite Name": "Starlink Shell 1 1143",
        "Satellite Number": 1143,
        "Semi-Major Axis(m)": 6931778.249405717,
        "Time(s)": 100
    },
    {
        "Altitude(m)": 555546.2438576118,
        "Argument of Periapsis(deg)": 0.003834363274623606,
        "Eccentricity": 0.0,
        "Inclination(deg)": 53.0,
        "Latitude(deg)": -7.669427496614149,
        "Longitude(deg)": 148.77324044169472,
        "Mean Anomaly(deg)": -9.468456760876132,
        "RAAN(deg)": 254.99429352914785,
        "Satellite Name": "Starlink Shell 1 1143",
        "Satellite Number": 1143,
        "Semi-Major Axis(m)": 6931778.249405717,
        "Time(s)": 110
    },
    {
        "Altitude(m)": 555441.1929674865,
        "Argument of Periapsis(deg)": 0.004182941754134842,
        "Eccentricity": 0.0,
        "Inclination(deg)": 53.0,
        "Latitude(deg)": -7.168138887307378,
        "Longitude(deg)": 149.11482772113996,
        "Mean Anomaly(deg)": -8.841625557319485,
        "RAAN(deg)": 254.99377475907033,
        "Satellite Name": "Starlink Shell 1 1143",
        "Satellite Number": 1143,
        "Semi-Major Axis(m)": 6931778.249405717,
        "Time(s)": 120
    },
    {
        "Altitude(m)": 555338.6902349129,
        "Argument of Periapsis(deg)": 0.004531520233646079,
        "Eccentricity": 0.0,
        "Inclination(deg)": 53.0,
        "Latitude(deg)": -6.666509243768848,
        "Longitude(deg)": 149.45558869798455,
        "Mean Anomaly(deg)": -8.21479435376279,
        "RAAN(deg)": 254.99325598899284,
        "Satellite Name": "Starlink Shell 1 1143",
        "Satellite Number": 1143,
        "Semi-Major Axis(m)": 6931778.249405717,
        "Time(s)": 130
    },
    {
        "Altitude(m)": 555238.7618761198,
        "Argument of Periapsis(deg)": 0.0048800987131573164,
        "Eccentricity": 0.0,
        "Inclination(deg)": 53.0,
        "Latitude(deg)": -6.164562526085968,
        "Longitude(deg)": 149.7955832104168,
        "Mean Anomaly(deg)": -7.587963150205993,
        "RAAN(deg)": 254.99273721891544,
        "Satellite Name": "Starlink Shell 1 1143",
        "Satellite Number": 1143,
        "Semi-Major Axis(m)": 6931778.249405717,
        "Time(s)": 140
    },
    {
        "Altitude(m)": 555141.4328272853,
        "Argument of Periapsis(deg)": 0.005228677192668553,
        "Eccentricity": 0.0,
        "Inclination(deg)": 53.0,
        "Latitude(deg)": -5.662322539277786,
        "Longitude(deg)": 150.13487076578778,
        "Mean Anomaly(deg)": -6.961131946649298,
        "RAAN(deg)": 254.99221844883795,
        "Satellite Name": "Starlink Shell 1 1143",
        "Satellite Number": 1143,
        "Semi-Major Axis(m)": 6931778.249405717,
        "Time(s)": 150
    },
    {
        "Altitude(m)": 555046.7267348103,
        "Argument of Periapsis(deg)": 0.00557725567217979,
        "Eccentricity": 0.0,
        "Inclination(deg)": 53.0,
        "Latitude(deg)": -5.159812945860666,
        "Longitude(deg)": 150.47351107063074,
        "Mean Anomaly(deg)": -6.3343007430926015,
        "RAAN(deg)": 254.99169967876045,
        "Satellite Name": "Starlink Shell 1 1143",
        "Satellite Number": 1143,
        "Semi-Major Axis(m)": 6931778.249405717,
        "Time(s)": 160
    },
    {
        "Altitude(m)": 554954.66594625,
        "Argument of Periapsis(deg)": 0.0059258341516910265,
        "Eccentricity": 0.0,
        "Inclination(deg)": 53.0,
        "Latitude(deg)": -4.6570572782759365,
        "Longitude(deg)": 150.8115630477328,
        "Mean Anomaly(deg)": -5.707469539535803,
        "RAAN(deg)": 254.991180908683,
        "Satellite Name": "Starlink Shell 1 1143",
        "Satellite Number": 1143,
        "Semi-Major Axis(m)": 6931778.249405717,
        "Time(s)": 170
    },
    {
        "Altitude(m)": 554865.271501932,
        "Argument of Periapsis(deg)": 0.006274412631202263,
        "Eccentricity": 0.0,
        "Inclination(deg)": 53.0,
        "Latitude(deg)": -4.154078951194474,
        "Longitude(deg)": 151.1490853660093,
        "Mean Anomaly(deg)": -5.080638335979108,
        "RAAN(deg)": 254.9906621386055,
        "Satellite Name": "Starlink Shell 1 1143",
        "Satellite Number": 1143,
        "Semi-Major Axis(m)": 6931778.249405717,
        "Time(s)": 180
    }
]